[
  {
    "OBJECT_NAME": "STARLINK-30127",
    "OBJECT_ID": "23067M",
    "EPOCH": "2025-11-11T01:26:37.214880",
    "MEAN_MOTION": 15.02525625,
    "ECCENTRICITY": 7.4e-05,
    "INCLINATION": 43.0014,
    "RA_OF_ASC_NODE": 199.1855,
    "ARG_OF_PERICENTER": 273.4312,
    "MEAN_ANOMALY": 86.6446,
    "EPHEMERIS_TYPE": 0,
    "CLASSIFICATION_TYPE": "U",
    "NORAD_CAT_ID": 56699,
    "ELEMENT_SET_NO": 999,
    "REV_AT_EPOCH": 13781,
    "BSTAR": 0.00033011,
    "MEAN_MOTION_DOT": 4.257e-05,
    "MEAN_MOTION_DDOT": 0.0,
    "TLE_LINE1": "1 56699U 23067M   25315.06015295  .00004257  00000+0  33011-3 0  9995",
    "TLE_LINE2": "2 56699  43.0014 199.1855 0000740 273.4312  86.6446 15.02525625137817",
    "COMMENT": "Grouped by shell and plane from TLE"
  },
  {
    "OBJECT_NAME": "STARLINK-30053",
    "OBJECT_ID": "23067N",
    "EPOCH": "2025-11-11T01:21:48.679488",
    "MEAN_MOTION": 15.02532547,
    "ECCENTRICITY": 0.0001128,
    "INCLINATION": 43.0039,
    "RA_OF_ASC_NODE": 199.1619,
    "ARG_OF_PERICENTER": 261.407,
    "MEAN_ANOMALY": 98.6645,
    "EPHEMERIS_TYPE": 0,
    "CLASSIFICATION_TYPE": "U",
    "NORAD_CAT_ID": 56700,
    "ELEMENT_SET_NO": 999,
    "REV_AT_EPOCH": 13781,
    "BSTAR": 3.7550000000000005e-05,
    "MEAN_MOTION_DOT": 3.04e-06,
    "MEAN_MOTION_DDOT": 0.0,
    "TLE_LINE1": "1 56700U 23067N   25315.05681342  .00000304  00000+0  37550-4 0  9991",
    "TLE_LINE2": "2 56700  43.0039 199.1619 0001128 261.4070  98.6645 15.02532547137819",
    "COMMENT": "Grouped by shell and plane from TLE"
  },
  {
    "OBJECT_NAME": "STARLINK-30125",
    "OBJECT_ID": "23067P",
    "EPOCH": "2025-11-11T01:17:01.808160",
    "MEAN_MOTION": 15.02519861,
    "ECCENTRICITY": 0.0001362,
    "INCLINATION": 43.0034,
    "RA_OF_ASC_NODE": 199.1348,
    "ARG_OF_PERICENTER": 269.133,
    "MEAN_ANOMALY": 90.9357,
    "EPHEMERIS_TYPE": 0,
    "CLASSIFICATION_TYPE": "U",
    "NORAD_CAT_ID": 56701,
    "ELEMENT_SET_NO": 999,
    "REV_AT_EPOCH": 13781,
    "BSTAR": 0.00029435,
    "MEAN_MOTION_DOT": 3.773e-05,
    "MEAN_MOTION_DDOT": 0.0,
    "TLE_LINE1": "1 56701U 23067P   25315.05349315  .00003773  00000+0  29435-3 0  9998",
    "TLE_LINE2": "2 56701  43.0034 199.1348 0001362 269.1330  90.9357 15.02519861137817",
    "COMMENT": "Grouped by shell and plane from TLE"
  },
  {
    "OBJECT_NAME": "STARLINK-30117",
    "OBJECT_ID": "23067Q",
    "EPOCH": "2025-11-11T00:34:00.682464",
    "MEAN_MOTION": 15.02538517,
    "ECCENTRICITY": 0.0001054,
    "INCLINATION": 43.0023,
    "RA_OF_ASC_NODE": 199.7049,
    "ARG_OF_PERICENTER": 270.9913,
    "MEAN_ANOMALY": 89.0809,
    "EPHEMERIS_TYPE": 0,
    "CLASSIFICATION_TYPE": "U",
    "NORAD_CAT_ID": 56702,
    "ELEMENT_SET_NO": 999,
    "REV_AT_EPOCH": 13780,
    "BSTAR": 6.2679e-05,
    "MEAN_MOTION_DOT": 6.43e-06,
    "MEAN_MOTION_DDOT": 0.0,
    "TLE_LINE1": "1 56702U 23067Q   25315.02361901  .00000643  00000+0  62679-4 0  9992",
    "TLE_LINE2": "2 56702  43.0023 199.7049 0001054 270.9913  89.0809 15.02538517137804",
    "COMMENT": "Grouped by shell and plane from TLE"
  },
  {
    "OBJECT_NAME": "STARLINK-30132",
    "OBJECT_ID": "23067R",
    "EPOCH": "2025-11-11T02:47:56.844960",
    "MEAN_MOTION": 15.02543025,
    "ECCENTRICITY": 0.0001324,
    "INCLINATION": 43.0054,
    "RA_OF_ASC_NODE": 198.742,
    "ARG_OF_PERICENTER": 279.722,
    "MEAN_ANOMALY": 80.3473,
    "EPHEMERIS_TYPE": 0,
    "CLASSIFICATION_TYPE": "U",
    "NORAD_CAT_ID": 56703,
    "ELEMENT_SET_NO": 999,
    "REV_AT_EPOCH": 13782,
    "BSTAR": 0.0,
    "MEAN_MOTION_DOT": -3.24e-06,
    "MEAN_MOTION_DDOT": 0.0,
    "TLE_LINE1": "1 56703U 23067R   25315.11663015 -.00000324  00000+0 -88878-5 0  9992",
    "TLE_LINE2": "2 56703  43.0054 198.7420 0001324 279.7220  80.3473 15.02543025137822",
    "COMMENT": "Grouped by shell and plane from TLE"
  },
  {
    "OBJECT_NAME": "STARLINK-30066",
    "OBJECT_ID": "23067S",
    "EPOCH": "2025-11-11T02:19:10.131456",
    "MEAN_MOTION": 15.02538698,
    "ECCENTRICITY": 0.0001204,
    "INCLINATION": 43.0033,
    "RA_OF_ASC_NODE": 198.5821,
    "ARG_OF_PERICENTER": 265.6651,
    "MEAN_ANOMALY": 94.4054,
    "EPHEMERIS_TYPE": 0,
    "CLASSIFICATION_TYPE": "U",
    "NORAD_CAT_ID": 56704,
    "ELEMENT_SET_NO": 999,
    "REV_AT_EPOCH": 13782,
    "BSTAR": 7.9701e-05,
    "MEAN_MOTION_DOT": 8.73e-06,
    "MEAN_MOTION_DDOT": 0.0,
    "TLE_LINE1": "1 56704U 23067S   25315.09664504  .00000873  00000+0  79701-4 0  9995",
    "TLE_LINE2": "2 56704  43.0033 198.5821 0001204 265.6651  94.4054 15.02538698137823",
    "COMMENT": "Grouped by shell and plane from TLE"
  },
  {
    "OBJECT_NAME": "STARLINK-30079",
    "OBJECT_ID": "23067U",
    "EPOCH": "2025-11-11T01:02:38.534784",
    "MEAN_MOTION": 15.02522527,
    "ECCENTRICITY": 0.0001026,
    "INCLINATION": 43.0033,
    "RA_OF_ASC_NODE": 199.0589,
    "ARG_OF_PERICENTER": 269.7873,
    "MEAN_ANOMALY": 90.2851,
    "EPHEMERIS_TYPE": 0,
    "CLASSIFICATION_TYPE": "U",
    "NORAD_CAT_ID": 56706,
    "ELEMENT_SET_NO": 999,
    "REV_AT_EPOCH": 13781,
    "BSTAR": 0.0,
    "MEAN_MOTION_DOT": -3.99e-06,
    "MEAN_MOTION_DDOT": 0.0,
    "TLE_LINE1": "1 56706U 23067U   25315.04350156 -.00000399  00000+0 -14471-4 0  9995",
    "TLE_LINE2": "2 56706  43.0033 199.0589 0001026 269.7873  90.2851 15.02522527137817",
    "COMMENT": "Grouped by shell and plane from TLE"
  },
  {
    "OBJECT_NAME": "STARLINK-30070",
    "OBJECT_ID": "23067V",
    "EPOCH": "2025-11-11T01:07:25.858848",
    "MEAN_MOTION": 15.02517521,
    "ECCENTRICITY": 8.25e-05,
    "INCLINATION": 43.0017,
    "RA_OF_ASC_NODE": 199.0841,
    "ARG_OF_PERICENTER": 270.0512,
    "MEAN_ANOMALY": 90.0236,
    "EPHEMERIS_TYPE": 0,
    "CLASSIFICATION_TYPE": "U",
    "NORAD_CAT_ID": 56707,
    "ELEMENT_SET_NO": 999,
    "REV_AT_EPOCH": 13781,
    "BSTAR": 0.0,
    "MEAN_MOTION_DOT": -2.854e-05,
    "MEAN_MOTION_DDOT": 0.0,
    "TLE_LINE1": "1 56707U 23067V   25315.04682707 -.00002854  00000+0 -19636-3 0  9991",
    "TLE_LINE2": "2 56707  43.0017 199.0841 0000825 270.0512  90.0236 15.02517521137815",
    "COMMENT": "Grouped by shell and plane from TLE"
  },
  {
    "OBJECT_NAME": "STARLINK-30071",
    "OBJECT_ID": "23067W",
    "EPOCH": "2025-11-11T00:48:14.111424",
    "MEAN_MOTION": 15.02536703,
    "ECCENTRICITY": 0.0001543,
    "INCLINATION": 43.0043,
    "RA_OF_ASC_NODE": 198.9801,
    "ARG_OF_PERICENTER": 258.5989,
    "MEAN_ANOMALY": 101.468,
    "EPHEMERIS_TYPE": 0,
    "CLASSIFICATION_TYPE": "U",
    "NORAD_CAT_ID": 56708,
    "ELEMENT_SET_NO": 999,
    "REV_AT_EPOCH": 13781,
    "BSTAR": 5.2458000000000005e-05,
    "MEAN_MOTION_DOT": 5.05e-06,
    "MEAN_MOTION_DDOT": 0.0,
    "TLE_LINE1": "1 56708U 23067W   25315.03349666  .00000505  00000+0  52458-4 0  9994",
    "TLE_LINE2": "2 56708  43.0043 198.9801 0001543 258.5989 101.4680 15.02536703137819",
    "COMMENT": "Grouped by shell and plane from TLE"
  },
  {
    "OBJECT_NAME": "STARLINK-30085",
    "OBJECT_ID": "23067X",
    "EPOCH": "2025-11-11T02:33:34.363008",
    "MEAN_MOTION": 15.02499323,
    "ECCENTRICITY": 6.56e-05,
    "INCLINATION": 43.0019,
    "RA_OF_ASC_NODE": 198.6719,
    "ARG_OF_PERICENTER": 279.002,
    "MEAN_ANOMALY": 81.0748,
    "EPHEMERIS_TYPE": 0,
    "CLASSIFICATION_TYPE": "U",
    "NORAD_CAT_ID": 56709,
    "ELEMENT_SET_NO": 999,
    "REV_AT_EPOCH": 13756,
    "BSTAR": 0.00076369,
    "MEAN_MOTION_DOT": 0.00010117,
    "MEAN_MOTION_DDOT": 0.0,
    "TLE_LINE1": "1 56709U 23067X   25315.10664772  .00010117  00000+0  76369-3 0  9997",
    "TLE_LINE2": "2 56709  43.0019 198.6719 0000656 279.0020  81.0748 15.02499323137562",
    "COMMENT": "Grouped by shell and plane from TLE"
  },
  {
    "OBJECT_NAME": "STARLINK-6132",
    "OBJECT_ID": "23090A",
    "EPOCH": "2025-11-11T01:23:30.087168",
    "MEAN_MOTION": 15.02533054,
    "ECCENTRICITY": 9.82e-05,
    "INCLINATION": 43.0024,
    "RA_OF_ASC_NODE": 199.6466,
    "ARG_OF_PERICENTER": 270.1127,
    "MEAN_ANOMALY": 89.9603,
    "EPHEMERIS_TYPE": 0,
    "CLASSIFICATION_TYPE": "U",
    "NORAD_CAT_ID": 57101,
    "ELEMENT_SET_NO": 999,
    "REV_AT_EPOCH": 13256,
    "BSTAR": 5.5596999999999996e-05,
    "MEAN_MOTION_DOT": 5.47e-06,
    "MEAN_MOTION_DDOT": 0.0,
    "TLE_LINE1": "1 57101U 23090A   25315.05798712  .00000547  00000+0  55597-4 0  9993",
    "TLE_LINE2": "2 57101  43.0024 199.6466 0000982 270.1127  89.9603 15.02533054132569",
    "COMMENT": "Grouped by shell and plane from TLE"
  },
  {
    "OBJECT_NAME": "STARLINK-6111",
    "OBJECT_ID": "23090B",
    "EPOCH": "2025-11-11T01:15:30.250944",
    "MEAN_MOTION": 15.02535368,
    "ECCENTRICITY": 0.000151,
    "INCLINATION": 43.0044,
    "RA_OF_ASC_NODE": 199.6055,
    "ARG_OF_PERICENTER": 264.2942,
    "MEAN_ANOMALY": 95.7728,
    "EPHEMERIS_TYPE": 0,
    "CLASSIFICATION_TYPE": "U",
    "NORAD_CAT_ID": 57102,
    "ELEMENT_SET_NO": 999,
    "REV_AT_EPOCH": 13256,
    "BSTAR": 7.8533e-05,
    "MEAN_MOTION_DOT": 8.57e-06,
    "MEAN_MOTION_DDOT": 0.0,
    "TLE_LINE1": "1 57102U 23090B   25315.05243346  .00000857  00000+0  78533-4 0  9991",
    "TLE_LINE2": "2 57102  43.0044 199.6055 0001510 264.2942  95.7728 15.02535368132566",
    "COMMENT": "Grouped by shell and plane from TLE"
  },
  {
    "OBJECT_NAME": "STARLINK-6130",
    "OBJECT_ID": "23090D",
    "EPOCH": "2025-11-11T01:18:42.916896",
    "MEAN_MOTION": 15.02547319,
    "ECCENTRICITY": 8.45e-05,
    "INCLINATION": 43.0035,
    "RA_OF_ASC_NODE": 199.6237,
    "ARG_OF_PERICENTER": 286.6754,
    "MEAN_ANOMALY": 73.3996,
    "EPHEMERIS_TYPE": 0,
    "CLASSIFICATION_TYPE": "U",
    "NORAD_CAT_ID": 57104,
    "ELEMENT_SET_NO": 999,
    "REV_AT_EPOCH": 13256,
    "BSTAR": 0.0,
    "MEAN_MOTION_DOT": -6.373e-05,
    "MEAN_MOTION_DDOT": 0.0,
    "TLE_LINE1": "1 57104U 23090D   25315.05466339 -.00006373  00000+0 -45697-3 0  9997",
    "TLE_LINE2": "2 57104  43.0035 199.6237 0000845 286.6754  73.3996 15.02547319132567",
    "COMMENT": "Grouped by shell and plane from TLE"
  }
]